     2              NAVIGATION DATA                         RINEX VERSION / TYPE
CCRINEXN V1.6.0 UX  CDDIS               03-JAN-19 17:31     PGM / RUN BY / DATE 
IGS BROADCAST EPHEMERIS FILE                                COMMENT             
    0.7451D-08 -0.1490D-07 -0.5960D-07  0.1192D-06          ION ALPHA           
    0.9011D+05 -0.6554D+05 -0.1311D+06  0.4588D+06          ION BETA            
    0.931322574615D-09 0.532907051820D-14   503808     2034 DELTA-UTC: A0,A1,T,W
    18                                                      LEAP SECONDS        
                                                            END OF HEADER       
29 19  1  2 11 59 44.0 0.302192755044D-03-0.829913915368D-11 0.000000000000D+00
    0.900000000000D+01-0.100062500000D+03 0.398088007003D-08 0.952077207917D+00
   -0.521168112755D-05 0.622255727649D-03 0.443682074547D-05 0.515358391762D+04
    0.302384000000D+06 0.335276126862D-07-0.133851142633D+01-0.931322574616D-08
    0.984905133504D+00 0.304500000000D+03 0.155370314284D+01-0.800319011063D-08
   -0.188222132325D-09 0.100000000000D+01 0.203400000000D+04 0.000000000000D+00
    0.200000000000D+01 0.000000000000D+00-0.102445483208D-07 0.900000000000D+01
    0.295800000000D+06 0.000000000000D+00 0.000000000000D+00 0.000000000000D+00
 1 19  1  2 12  0  0.0-0.138683710247D-03-0.613908923697D-11 0.000000000000D+00
    0.170000000000D+02-0.496250000000D+02 0.403873965829D-08-0.191023425802D+01
   -0.273063778877D-05 0.824156426825D-02 0.106766819954D-04 0.515366336250D+04
    0.302400000000D+06 0.447034835815D-07-0.348896025766D+00-0.121071934700D-06
    0.974236733190D+00 0.179531250000D+03 0.690317325733D+00-0.759281627128D-08
    0.381087302387D-09 0.100000000000D+01 0.203400000000D+04 0.000000000000D+00
    0.200000000000D+01 0.000000000000D+00 0.558793544769D-08 0.170000000000D+02
    0.295218000000D+06 0.400000000000D+01 0.000000000000D+00 0.000000000000D+00
 2 19  1  2 12  0  0.0-0.102310441434D-03-0.102318153950D-10 0.000000000000D+00
    0.650000000000D+02-0.584687500000D+02 0.451840254101D-08-0.158059509107D+01
   -0.272504985332D-05 0.186936577083D-01 0.107455998659D-04 0.515362689781D+04
    0.302400000000D+06 0.311061739922D-06-0.414582443149D+00 0.385567545891D-06
    0.953309997279D+00 0.163437500000D+03-0.179682634693D+01-0.779639641735D-08
    0.299655328329D-09 0.100000000000D+01 0.203400000000D+04 0.000000000000D+00
    0.200000000000D+01 0.000000000000D+00-0.204890966415D-07 0.650000000000D+02
    0.295230000000D+06 0.000000000000D+00 0.000000000000D+00 0.000000000000D+00
 3 19  1  2 12  0  0.0 0.174374785274D-03 0.272848410532D-11 0.000000000000D+00
    0.110000000000D+02 0.130000000000D+02 0.482484383125D-08-0.300213051529D+01
    0.640749931335D-06 0.187885691412D-02 0.625103712082D-05 0.515360153389D+04
    0.302400000000D+06-0.353902578354D-07 0.693261561012D+00-0.894069671631D-07
    0.962095809278D+00 0.257468750000D+03 0.694838809065D+00-0.810248035797D-08
    0.320013329840D-09 0.100000000000D+01 0.203400000000D+04 0.000000000000D+00
    0.200000000000D+01 0.000000000000D+00 0.232830643654D-08 0.110000000000D+02
    0.295218000000D+06 0.400000000000D+01 0.000000000000D+00 0.000000000000D+00
 4 19  1  2 12  0  0.0-0.123555306345D-03-0.142108547152D-10 0.000000000000D+00
    0.570000000000D+02-0.667812500000D+02 0.469198115413D-08 0.446307975113D+00
   -0.352598726749D-05 0.138684833655D-01 0.321865081787D-05 0.515367370033D+04
    0.302400000000D+06-0.558793544769D-08-0.150330612411D+01 0.219792127609D-06
    0.958687249652D+00 0.317625000000D+03 0.586183402400D+00-0.853178395448D-08
   -0.223580741607D-09 0.100000000000D+01 0.203400000000D+04 0.000000000000D+00
    0.200000000000D+01 0.630000000000D+02-0.558793544769D-08 0.570000000000D+02
    0.295218000000D+06 0.400000000000D+01 0.000000000000D+00 0.000000000000D+00
 5 19  1  2 12  0  0.0 0.657048076391D-06 0.113686837722D-12 0.000000000000D+00
    0.770000000000D+02 0.968750000000D+01 0.521164578160D-08 0.100647675296D+01
    0.735744833946D-06 0.556880992372D-02 0.661611557007D-05 0.515359477425D+04
    0.302400000000D+06-0.130385160446D-07 0.668411748409D+00 0.596046447754D-07
    0.948993879850D+00 0.246281250000D+03 0.724484374345D+00-0.833856184101D-08
    0.307512820763D-09 0.100000000000D+01 0.203400000000D+04 0.000000000000D+00
    0.200000000000D+01 0.000000000000D+00-0.111758708954D-07 0.770000000000D+02
    0.295230000000D+06 0.000000000000D+00 0.000000000000D+00 0.000000000000D+00
 6 19  1  2 12  0  0.0 0.304804183543D-03-0.727595761418D-11 0.000000000000D+00
    0.101000000000D+03-0.593437500000D+02 0.411517131482D-08-0.160143195992D+01
   -0.298023223877D-05 0.129867810756D-02 0.112447887659D-04 0.515377232361D+04
    0.302400000000D+06-0.763684511185D-07-0.357189600941D+00 0.204890966415D-07
    0.973910244985D+00 0.170687500000D+03-0.122015215050D+01-0.771389263576D-08
    0.339299838226D-09 0.100000000000D+01 0.203400000000D+04 0.000000000000D+00
    0.280000000000D+01 0.000000000000D+00 0.465661287308D-08 0.101000000000D+03
    0.295230000000D+06 0.000000000000D+00 0.000000000000D+00 0.000000000000D+00
 8 19  1  2 12  0  0.0-0.127693638205D-03-0.136424205266D-11 0.000000000000D+00
    0.440000000000D+02-0.895625000000D+02 0.434410952103D-08 0.647087040264D+00
   -0.471249222755D-05 0.404602952767D-02 0.387430191040D-05 0.515367814255D+04
    0.302400000000D+06 0.577419996262D-07-0.141499250409D+01-0.372529029846D-07
    0.969822630971D+00 0.308281250000D+03-0.393507968604D+00-0.820748473183D-08
   -0.191436545529D-09 0.100000000000D+01 0.203400000000D+04 0.000000000000D+00
    0.200000000000D+01 0.000000000000D+00 0.512227416039D-08 0.440000000000D+02
    0.295218000000D+06 0.400000000000D+01 0.000000000000D+00 0.000000000000D+00
 9 19  1  2 12  0  0.0 0.476469751447D-03-0.432009983342D-11 0.000000000000D+00
    0.530000000000D+02-0.170312500000D+02 0.489198948017D-08 0.689706446253D+00
   -0.994652509689D-06 0.147327082232D-02 0.762939453125D-05 0.515375561333D+04
    0.302400000000D+06-0.186264514923D-07 0.172630382812D+01 0.186264514923D-07
    0.952062125232D+00 0.227156250000D+03 0.168248536181D+01-0.811105227427D-08
   -0.496806429329D-09 0.100000000000D+01 0.203400000000D+04 0.000000000000D+00
    0.200000000000D+01 0.000000000000D+00 0.139698386192D-08 0.530000000000D+02
    0.000000000000D+00 0.000000000000D+00 0.000000000000D+00 0.000000000000D+00
10 19  1  2 12  0  0.0 0.142254866660D-03-0.602540239925D-11 0.000000000000D+00
    0.640000000000D+02 0.148437500000D+02 0.482305795302D-08 0.238947424680D+01
    0.812113285065D-06 0.417550257407D-02 0.663287937641D-05 0.515365961075D+04
    0.302400000000D+06-0.162050127983D-06 0.689943302931D+00-0.745058059692D-08
    0.962148759598D+00 0.254062500000D+03-0.279840255693D+01-0.808069344771D-08
    0.426446322699D-09 0.100000000000D+01 0.203400000000D+04 0.000000000000D+00
    0.200000000000D+01 0.000000000000D+00 0.186264514923D-08 0.640000000000D+02
    0.295200000000D+06 0.000000000000D+00 0.000000000000D+00 0.000000000000D+00
11 19  1  2 12  0  0.0-0.680810306221D-03 0.500222085975D-11 0.000000000000D+00
    0.110000000000D+02-0.927812500000D+02 0.540058209878D-08-0.258730524383D+01
   -0.472180545330D-05 0.166217640508D-01 0.855140388012D-05 0.515368144608D+04
    0.302400000000D+06 0.149011611938D-06-0.790203419190D+00 0.150874257088D-06
    0.908054843009D+00 0.179875000000D+03 0.185239407009D+01-0.818284084817D-08
    0.553594488004D-10 0.100000000000D+01 0.203400000000D+04 0.000000000000D+00
    0.200000000000D+01 0.000000000000D+00-0.121071934700D-07 0.110000000000D+02
    0.295218000000D+06 0.400000000000D+01 0.000000000000D+00 0.000000000000D+00
12 19  1  2 12  0  0.0 0.279625412077D-03-0.306954461848D-11 0.000000000000D+00
    0.660000000000D+02 0.766562500000D+02 0.404659727948D-08 0.307805558910D+01
    0.393390655518D-05 0.724092731252D-02 0.282190740108D-05 0.515372287178D+04
    0.302400000000D+06-0.186264514923D-08-0.238340076831D+01-0.577419996262D-07
    0.984520826387D+00 0.336343750000D+03 0.102202498717D+01-0.799640442750D-08
    0.227509483475D-09 0.100000000000D+01 0.203400000000D+04 0.000000000000D+00
    0.200000000000D+01 0.000000000000D+00-0.125728547573D-07 0.660000000000D+02
    0.295230000000D+06 0.000000000000D+00 0.000000000000D+00 0.000000000000D+00
13 19  1  2 12  0  0.0-0.796453095973D-04 0.125055521494D-11 0.000000000000D+00
    0.440000000000D+02-0.159062500000D+02 0.453304593862D-08-0.853095268054D+00
   -0.847503542900D-06 0.372596294619D-02 0.838935375214D-05 0.515366270638D+04
    0.302400000000D+06-0.316649675369D-07 0.186137530454D+01 0.931322574616D-08
    0.967673563351D+00 0.218375000000D+03 0.138838738875D+01-0.796604648912D-08
   -0.598596339163D-09 0.100000000000D+01 0.203400000000D+04 0.000000000000D+00
    0.200000000000D+01 0.000000000000D+00-0.111758708954D-07 0.440000000000D+02
    0.295230000000D+06 0.000000000000D+00 0.000000000000D+00 0.000000000000D+00
14 19  1  2 12  0  0.0-0.937739387155D-04 0.568434188608D-12 0.000000000000D+00
    0.610000000000D+02-0.237187500000D+02 0.479484274507D-08 0.283574322637D-01
   -0.116974115372D-05 0.100204929477D-01 0.791996717453D-05 0.515365476036D+04
    0.302400000000D+06-0.121071934700D-06 0.181795659961D+01 0.102445483208D-06
    0.960216736356D+00 0.228937500000D+03-0.194808952060D+01-0.825177259856D-08
   -0.540736788679D-09 0.100000000000D+01 0.203400000000D+04 0.000000000000D+00
    0.200000000000D+01 0.000000000000D+00-0.977888703346D-08 0.610000000000D+02
    0.295200000000D+06 0.000000000000D+00 0.000000000000D+00 0.000000000000D+00
